name,address,city,zip_code,phone,state
Trumann Ley,678 Alpine Street,Escondido,92030,760-477-3885,California
Reeba Beades,6 Bashford Road,Orange,92668,858-159-0501,California
Shirl Sedgeman,2160 Anzinger Lane,Bakersfield,93305,805-265-8928,California
Roanne Hum,39 Vermont Hill,Santa Ana,92725,714-445-4448,California
Read Izkoveski,72553 Heffernan Trail,San Jose,95108,408-234-3679,California
Franni Tschirschky,739 Evergreen Point,Pasadena,91186,626-388-6510,California
Arlin Beining,6 Del Mar Alley,San Jose,95160,408-515-3546,California
Sheilah Pedrocchi,0 Crescent Oaks Hill,Sacramento,94230,916-551-0251,California
Deanne Nijssen,35 Marquette Junction,Concord,94522,925-361-5319,California
Marvin Leggott,6058 Swallow Court,Pasadena,91131,626-678-4989,California
Annemarie Harridge,6 Starling Court,Santa Rosa,95405,707-427-0645,California
Rudyard Spieck,6899 Pierstorff Avenue,Richmond,94807,510-777-3080,California
Em Curreen,63409 Loomis Avenue,Santa Clara,95054,831-561-4788,California
Sharia Sokell,68 Ryan Pass,Whittier,90610,562-967-6431,California
Kelby Cherrison,87 Burrows Road,Los Angeles,90060,323-163-4553,California
Arden Cornelius,04 Fulton Park,Mountain View,94042,650-867-2699,California
Karia Stendell,902 Drewry Alley,Northridge,91328,818-327-6954,California
Chrissie Leverett,21482 Northridge Center,Long Beach,90847,562-709-2428,California
Joby Carss,1 Red Cloud Junction,Fresno,93704,559-632-5043,California
Christyna Fellis,1 Nevada Road,San Jose,95133,408-288-1843,California
Stanly Deppe,440 Northfield Plaza,San Bernardino,92415,909-903-8982,California
Delaney Gierok,99 Sugar Lane,Richmond,94807,510-940-3092,California
Jemmie Weben,60 Oakridge Alley,Los Angeles,90101,213-535-7698,California
Delmor Coatsworth,0 Hooker Way,San Diego,92137,619-197-7108,California
Rutter Kneeshaw,78 Bluejay Way,Santa Ana,92705,714-767-8670,California
Jacquie Dilnot,96 Pearson Plaza,San Diego,92105,858-228-9462,California
Benedikt Grindell,00 4th Alley,Orange,92867,714-734-4786,California
Mercedes Louiset,3576 Warrior Hill,Los Angeles,90005,213-838-6419,California
Pearce Oxer,193 Continental Junction,Fresno,93778,559-817-7808,California
Suzann McKeevers,2463 Garrison Plaza,Oakland,94622,510-455-6274,California
Latrina Birchner,47361 Prairie Rose Center,San Bernardino,92405,909-562-6268,California
Karee Sherwood,60 Toban Point,Oakland,94616,415-888-7381,California
Kara Stuchberry,2015 International Avenue,Oakland,94611,415-294-0300,California
Olivie Kerslake,25033 Del Sol Court,Los Angeles,90101,213-416-2466,California
Agatha Prosser,02576 Mitchell Alley,Newport Beach,92662,949-589-5263,California
Bay Mellem,8076 Commercial Pass,Sacramento,94237,916-293-2919,California
Sula Tapper,57 Lakewood Avenue,Santa Cruz,95064,831-499-0325,California
Wald Ioannou,08 Pennsylvania Trail,Fresno,93709,559-348-3507,California
Eleonore Livingston,18448 Cherokee Hill,San Diego,92191,619-419-3210,California
Bettina Bulled,05549 Sauthoff Hill,Santa Ana,92725,714-147-6033,California
Datha Saddler,82 4th Pass,San Diego,92170,619-100-2061,California
Lorens Trustey,318 Forest Hill,Fresno,93715,209-210-5498,California
Koo Haddeston,1 Ramsey Circle,Los Angeles,90005,323-857-3592,California
Terese Luxen,03415 Lawn Terrace,San Jose,95194,408-502-1196,California
Abbi Tett,706 Hanson Trail,San Jose,95108,408-501-8262,California
Catrina Guard,599 Garrison Road,San Diego,92110,619-869-5918,California
Andie Pratt,51274 Forest Dale Avenue,Long Beach,90805,310-857-8634,California
Lila Kinnaird,765 Spaight Street,Hayward,94544,510-136-4000,California
Noble Enos,1 Blackbird Street,Sacramento,94263,916-664-7092,California
Maribeth Bellingham,49 Oriole Alley,Newport Beach,92662,714-899-7002,California
Adelaide Kennler,964 Melody Junction,Anaheim,92825,714-756-3513,California
Leicester Dunphy,0 4th Point,Los Angeles,90045,310-274-2382,California
Janeen Planke,112 Clemons Center,Escondido,92030,760-244-6860,California
Linell Denning,069 Loeprich Place,Whittier,90610,562-182-0433,California
Oona Le feaver,803 Anhalt Alley,Los Angeles,90060,323-233-7308,California
Johanna Mark,6639 Melby Drive,Long Beach,90810,562-221-1318,California
Melloney Steljes,09 Mallory Circle,Oakland,94627,510-351-2789,California
Martin Danilishin,2277 Jana Crossing,Los Angeles,90050,213-321-6477,California
Lorianne Inggall,5937 Pearson Park,Pasadena,91186,626-807-3479,California
Janeczka Horsted,1672 Steensland Street,Sacramento,94207,916-650-7889,California
Meagan Orrell,20 Erie Pass,Fresno,93773,559-802-3732,California
Cassandra Turbayne,26472 Hauk Trail,Burbank,91505,323-876-3423,California
Delainey Knottley,39 Warner Lane,Anaheim,92812,714-806-8806,California
Cheston Dutt,16960 Hauk Trail,Sacramento,94286,916-511-9285,California
Filberte Barlas,2894 Anderson Circle,Oakland,94622,510-445-7519,California
Minta Creffield,6 Sommers Lane,Sacramento,94237,916-240-6936,California
Kial De Andisie,7641 Corscot Parkway,San Jose,95113,408-951-1568,California
Timothea Boycott,096 Dunning Crossing,Bakersfield,93311,805-232-3555,California
Skipper Wall,0 Debs Drive,Stockton,95205,209-720-0526,California
Jens Lamperti,0 Fallview Plaza,San Bernardino,92424,909-927-5314,California
Minna Pedrollo,5 Troy Junction,Los Angeles,90005,323-729-8975,California
Abbie Hazley,341 Truax Center,San Francisco,94121,415-170-5727,California
Carlina Faircloth,4 Burning Wood Avenue,Los Angeles,90040,714-627-7726,California
Evelyn Beazer,87339 Esch Hill,Santa Ana,92725,714-610-1987,California
Alina Tubble,0 Lunder Park,North Hollywood,91606,818-735-9053,California
Doretta Prevost,596 Brentwood Avenue,Fresno,93715,559-821-6509,California
Marina Trinbey,3 Eagan Pass,Fresno,93721,559-676-0690,California
Graig Gethyn,0423 Kinsman Place,San Diego,92127,858-657-4815,California
Caitlin Gyles,1018 Valley Edge Park,San Jose,95173,408-394-0474,California
Doretta Valentine,59035 Crowley Drive,San Diego,92160,619-210-1602,California
Godwin Donaher,75 Erie Drive,San Diego,92153,619-881-0208,California
Kendra Esgate,2 Morning Park,Los Angeles,90087,213-156-4269,California
Marsiella Matskiv,91 Lakewood Gardens Pass,Anaheim,92812,714-399-2870,California
Anne-marie Mycroft,09 Shelley Hill,Sacramento,94286,916-888-6917,California
Willard Kittel,9 Gulseth Place,San Diego,92145,619-960-2089,California
Drona Grigori,3213 Shoshone Parkway,Sacramento,95813,916-759-4765,California
Gerek Cheers,6790 Dovetail Park,Inglewood,90305,323-387-7170,California
Verile Bemwell,0037 Express Plaza,Fresno,93704,559-605-4497,California
Rodie Iacovelli,6 Eliot Junction,Oakland,94627,510-500-6031,California
Nathan Surfleet,0851 Summer Ridge Hill,Carlsbad,92013,760-921-6812,California
Florry McIlraith,4645 Del Mar Avenue,Sacramento,94280,916-983-7189,California
Alyosha Threadgall,7753 Everett Place,Chula Vista,91913,619-346-9823,California
Berta Gurery,207 Kenwood Point,San Francisco,94177,415-295-4452,California
Rachael Jack,35 Walton Road,Oakland,94611,415-733-5767,California
Otes Seeviour,74 Doe Crossing Parkway,Fullerton,92640,559-233-0284,California
Konstance Bakey,981 Fieldstone Trail,Modesto,95354,559-386-2422,California
Parry Pringell,75 Mariners Cove Way,Sacramento,94245,916-467-8815,California
Jammal Gilstoun,3 Graceland Drive,San Francisco,94142,415-798-7476,California
Rube McSperrin,3423 Del Mar Avenue,Fresno,93709,559-727-1976,California
Matthaeus Beddis,9810 Ludington Center,San Jose,95138,408-554-9699,California
Ellary Mableson,0 Iowa Street,Fresno,93762,559-885-6478,California
Gordy Gogerty,776 Declaration Place,Irvine,92717,714-205-1818,California
Sherill Poad,419 Summer Ridge Park,Long Beach,90810,323-455-9747,California
Noland Crank,7 Westport Hill,Fresno,93721,559-850-7783,California
Corinna Riach,542 Mosinee Avenue,San Mateo,94405,805-647-5062,California
Perice Houchin,642 Mendota Point,Long Beach,90831,562-512-1757,California
Blaire Kain,22416 2nd Lane,Carlsbad,92013,760-696-5658,California
Wylma Jacqueminot,4583 Autumn Leaf Circle,San Francisco,94105,510-566-3972,California
Karalynn Nockolds,9701 Ridgeway Parkway,Sacramento,95852,916-641-5547,California
Dolf Raynor,6 Thierer Park,San Diego,92137,619-196-8559,California
Mervin Klas,2 Spenser Point,Los Angeles,90025,818-645-5367,California
Chadwick Valero,8044 Southridge Road,Sacramento,95813,916-712-7279,California
Stanton Mighele,0913 Stoughton Parkway,Sacramento,95838,916-192-5820,California
Burtie Gregor,734 Mallory Alley,Fresno,93773,559-304-1963,California
Pier Gatley,9 Green Crossing,Sunnyvale,94089,650-447-6372,California
Conny Barniss,5930 Chinook Trail,Sacramento,94280,916-585-1564,California
Vite Denziloe,760 Butternut Trail,Santa Rosa,95405,707-870-0562,California
Towney Carling,63126 Northwestern Terrace,Newport Beach,92662,714-356-8205,California
Cody Hawkshaw,8604 Mosinee Alley,Carlsbad,92013,760-449-9991,California
Pooh Reeds,3 Lighthouse Bay Plaza,Los Angeles,90081,213-251-7262,California
Lewie Bromet,7 Stuart Crossing,Bakersfield,93311,805-275-4708,California
Emlynn Felmingham,997 Golf Drive,Oakland,94622,510-599-0421,California
Codie Oldknow,58016 Shasta Point,Concord,94522,925-775-9476,California
Tandi Sutton,849 Rigney Road,Whittier,90605,562-296-7015,California
Alwyn Esilmon,0 Valley Edge Center,Lancaster,93584,661-557-2151,California
Janey Leakner,5 Debra Pass,Glendale,91205,818-161-7348,California
Fern Calcott,90608 Calypso Avenue,Riverside,92505,909-106-8103,California
Lavinie MacDonnell,68142 Lotheville Street,Redwood City,94064,650-276-2864,California
Barty Foat,5 Kedzie Lane,Oakland,94616,415-900-1111,California
Maria Shee,06 Longview Place,Sacramento,94250,916-845-1541,California
Brittani Muckeen,55 Spohn Center,Pasadena,91125,626-346-0839,California
Dacy Cavill,0854 Meadow Vale Crossing,Los Angeles,90189,213-216-9967,California
Krishnah Dabrowski,99562 Lien Alley,Fresno,93740,559-581-0875,California
Rik Pepperell,65491 Erie Road,Santa Cruz,95064,831-305-4918,California
Elberta Norcliff,7031 Thompson Parkway,San Francisco,94142,415-131-6558,California
Carolina Thresh,593 Warner Place,Irvine,92710,714-996-6862,California
Frans Povele,9 Darwin Terrace,Los Angeles,90081,213-776-6111,California
Brina Rapp,41 Tennessee Plaza,San Diego,92127,619-657-3273,California
Hamnet Rivilis,4 Daystar Circle,Pasadena,91103,323-941-8766,California
Isabel McOwen,2 Sunbrook Alley,Pasadena,91131,626-170-4000,California
Marcello Seatter,6552 Schmedeman Center,San Diego,92176,619-420-0609,California
Cosimo Easterling,187 Kennedy Pass,Palmdale,93591,661-470-3291,California
Durant Haddow,87319 Banding Terrace,Irvine,92619,949-112-7064,California
Fidelity Ortner,649 Ramsey Court,Los Angeles,90050,213-911-6857,California
Shayne Stothert,03 Loeprich Way,Los Angeles,90030,213-382-8241,California
Agata Le Brun,07 Golden Leaf Crossing,Fresno,93726,559-113-0261,California
Crystal Danahar,00 Main Pass,Van Nuys,91406,805-151-9869,California
Cy Ottey,3 Ilene Avenue,Inglewood,90305,310-481-1677,California
Merci Diver,6 Eagan Avenue,Sacramento,94273,916-609-5288,California
Quent Crothers,5081 Hermina Alley,San Diego,92121,858-433-9459,California
Teresita Pickrell,07 Hayes Drive,Fresno,93794,559-151-9463,California
Vaughn Croney,3 Pepper Wood Way,Sacramento,94286,916-416-5353,California
Koressa Reaper,51 Trailsway Drive,Los Angeles,90065,818-645-1240,California
Sanderson Waddams,026 Hagan Trail,San Jose,95133,408-824-2568,California
Randene Eves,029 Spohn Crossing,Anaheim,92812,714-826-8446,California
Kitty Nund,01 Clyde Gallagher Avenue,Sacramento,94280,916-544-9385,California
Jenni McClean,79932 Eagle Crest Avenue,Redwood City,94064,650-487-5904,California
Rafaellle Narracott,1 Fisk Crossing,San Diego,92191,619-417-1473,California
Leslie Simper,0654 Packers Point,San Francisco,94137,415-867-3326,California
Pyotr Tiffany,71 Westridge Road,Torrance,90505,310-486-9442,California
Aprilette O'Regan,46 Glendale Drive,Fresno,93762,559-974-1662,California
Alexina Batters,037 Pleasure Way,Anaheim,92812,714-448-6538,California
Bethany Vanin,9108 Green Ridge Place,Anaheim,92825,714-157-8714,California
Elizabet Harkness,8 Knutson Avenue,Irvine,92717,714-633-0270,California
Dita Babcock,65 Burning Wood Lane,Carlsbad,92013,760-868-9100,California
Taffy Fallen,10450 Ronald Regan Terrace,Oxnard,93034,805-461-4301,California
Devon Skeeles,17 Banding Park,Los Angeles,90071,213-492-6218,California
Corissa Bodsworth,6525 Little Fleur Point,San Diego,92153,619-152-2012,California
Kristine Cavey,3160 Bluejay Circle,Huntington Beach,92648,562-329-6404,California
Pat Hauger,21165 Trailsway Center,Burbank,91505,626-881-9709,California
Jo Wilds,857 Armistice Trail,San Diego,92110,949-617-6458,California
Emmanuel Terbruggen,12559 Oneill Court,Bakersfield,93305,805-201-2967,California
Isabella Sansbury,03 Walton Hill,San Diego,92160,619-710-0128,California
Edvard Douch,5736 Jackson Avenue,Los Angeles,90005,323-668-2780,California
Flemming Vanlint,46 Dexter Court,Carlsbad,92013,760-220-3544,California
Nicolle Scoterbosh,346 Schiller Lane,Fresno,93778,559-597-9372,California
Bobine Bullivent,3511 Lyons Circle,Sacramento,94263,916-709-9220,California
Davis Cornelissen,940 Stephen Lane,Pasadena,91117,626-905-8782,California
Jo Stanlack,36755 Grover Park,Sacramento,94286,916-527-1828,California
Sigismund Lowry,3 Nancy Circle,Santa Barbara,93106,805-743-0173,California
Kip Jull,25 Mifflin Street,San Francisco,94169,415-423-2379,California
Marie-jeanne Southcoat,655 American Ash Point,Oakland,94611,510-243-5837,California
Nan Sleit,7 Eagle Crest Street,Los Angeles,90087,213-439-7160,California
Leone Kilfoyle,82 Bayside Center,Burbank,91505,818-382-4080,California
Alfons Jeratt,9 Roxbury Pass,Long Beach,90805,310-332-7199,California
Batsheva Hillock,2 Eastlawn Plaza,Oxnard,93034,805-329-8624,California
Nickola Cully,8100 Gulseth Plaza,Fresno,93740,559-263-4725,California
Sarena Slogrove,48931 8th Trail,Fresno,93750,559-260-5229,California
Donnie Girardy,99 Continental Terrace,San Jose,95138,408-212-0088,California
Dorthy Lambrick,7 Eagan Plaza,Fresno,93715,559-437-6140,California
Joela Tesdale,58751 Lotheville Lane,Sacramento,95818,530-953-3907,California
Karon Gilphillan,503 Grover Plaza,Alhambra,91841,626-133-5739,California
Tuesday Benny,0 Lukken Center,San Diego,92132,858-986-0251,California
Kerr Rutt,0597 International Circle,Fresno,93704,209-683-1036,California
Alexander Tonkes,7 Schiller Trail,Redwood City,94064,650-856-2417,California
Katleen Burgott,55409 Buena Vista Lane,San Francisco,94121,858-135-2624,California
Roosevelt Tottman,4362 Cherokee Drive,Stockton,95205,209-431-1286,California
Demetri Mountlow,56 Summer Ridge Park,Bakersfield,93311,805-430-6822,California
Evangelia Walisiak,63584 Stephen Crossing,Richmond,94807,510-906-2832,California
Laurie Weatherhogg,118 Reindahl Court,Oceanside,92056,760-170-9320,California
Seymour Challace,34 Helena Hill,Sacramento,94280,916-895-5607,California
Tessie Desport,4 Utah Way,San Jose,95194,408-568-3671,California
Alicea Betteridge,029 Trailsway Parkway,Fresno,93750,559-499-9618,California
Gertrud Awin,6 Pierstorff Way,Los Angeles,90050,213-429-6994,California
Nicola Janicki,44571 Hagan Park,South Lake Tahoe,96154,530-208-4201,California
Thornie Arnholtz,81627 Holy Cross Plaza,Inglewood,90310,310-977-6864,California
Fernandina Licciardiello,0564 Barnett Junction,Pasadena,91103,626-161-4032,California
Pepita Parlor,58 8th Avenue,Anaheim,92825,714-867-6074,California
Arni Shallcross,79 Corben Park,Sacramento,94297,916-189-0884,California
Juline Eaklee,814 Manufacturers Place,Fullerton,92835,714-533-4274,California
Zora Gillespie,733 Thackeray Court,Sacramento,94237,916-942-9642,California
Mata Bussey,4 Ludington Way,San Francisco,94154,415-228-7783,California
Clevie Guitonneau,160 Sycamore Lane,Santa Monica,90405,310-370-0189,California
Doloritas Combes,9324 Thierer Center,Fullerton,92640,559-666-7315,California
Cart Stickens,45466 Golf View Street,Santa Clara,95054,949-478-4195,California
Regina Ingman,7678 Raven Center,Sacramento,95818,916-330-4421,California
Ali Sayton,7 Almo Road,San Diego,92170,619-944-4504,California
Virginia Jimmison,01 Marcy Crossing,Sacramento,95813,916-476-7148,California
Huey Ferrini,48 Birchwood Alley,Sacramento,94291,916-932-7005,California
Salmon Stihl,558 Anderson Hill,San Francisco,94105,510-834-9373,California
Megan Plank,3 Bayside Street,San Jose,95133,408-454-9551,California
Dre Curley,5640 Bartelt Pass,San Francisco,94105,415-621-0782,California
Flint Penrith,0215 Iowa Street,San Diego,92160,619-707-7396,California
Harwilll Dessant,75 Maywood Parkway,Sacramento,95813,916-103-3949,California
Hannah Hutchens,6740 Summerview Crossing,Bakersfield,93386,661-207-6253,California
Deane Cayet,16324 Nancy Parkway,Pasadena,91117,626-945-2183,California
Clemente Gallaher,35906 Victoria Circle,Palmdale,93591,661-568-6795,California
Vic Blackett,929 Acker Circle,Long Beach,90840,562-984-2820,California
Ashli Garstan,47 Sullivan Junction,Los Angeles,90035,323-680-4037,California
Lacy Arlott,45027 Iowa Street,San Diego,92170,619-888-1096,California
Herrick Fenning,46 Esch Street,Bakersfield,93386,661-578-9031,California
Willy Oller,1650 Grim Drive,Glendale,91205,818-842-8008,California
Adam Toolan,28687 Swallow Circle,San Diego,92170,619-954-1455,California
Elsi Cansfield,11 Hazelcrest Crossing,San Diego,92121,760-836-2876,California
Bob Chipperfield,0485 Mcbride Drive,Bakersfield,93386,661-674-6617,California
Ruben Berney,7304 Caliangt Point,Torrance,90505,310-924-0912,California
Orlando Brummitt,1512 Sunnyside Circle,Sacramento,94297,916-345-1447,California
Culver Cogle,12399 Warrior Lane,Fullerton,92640,559-354-0321,California
Shawnee Bwy,85975 Crescent Oaks Park,Sacramento,94250,916-199-0068,California
Gradey Wiskar,086 Main Lane,Pasadena,91186,626-322-4546,California
Barbra Iannitti,00 Kensington Terrace,Sacramento,94245,916-804-2853,California
Raoul Doul,6 Algoma Terrace,Inglewood,90305,310-539-3141,California
Welsh Bonsul,98 Maryland Court,Torrance,90510,818-921-4849,California
Saudra Dobbie,84907 Declaration Street,Newport Beach,92662,714-847-9621,California
Jaimie Camplejohn,2 Duke Plaza,North Hollywood,91616,213-783-9578,California
Melina McCritchie,5392 Troy Center,San Diego,92121,858-716-1554,California
Quintin Cramphorn,93365 Melvin Point,Los Angeles,90101,213-185-1155,California
Wolfie Stonall,80901 Lakeland Hill,Riverside,92513,951-474-7239,California
Raffarty Cogle,6 Farragut Avenue,Palo Alto,94302,650-729-3248,California
Matteo Skocroft,46304 Gale Center,San Bernardino,92415,909-679-5469,California
Marnia Palphramand,37551 Sage Center,Escondido,92030,760-450-9474,California
Bern Kuschek,6723 Burrows Pass,Corona,92883,626-405-6770,California
Etienne Norster,83 Susan Place,Chula Vista,91913,619-830-9284,California
Sonja Filshin,6962 Mccormick Junction,North Hollywood,91616,213-121-1029,California
Bryn Gillian,8 Artisan Drive,South Lake Tahoe,96154,530-857-0246,California
Gregory Gribbell,484 Pond Park,Bakersfield,93305,661-991-1633,California
Ivonne Slatter,2815 Briar Crest Terrace,San Diego,92132,858-699-3707,California
Konrad Fisby,8 Anhalt Crossing,Van Nuys,91499,213-919-2277,California
Quillan Liley,4 Bowman Lane,Escondido,92030,760-222-8534,California
Jayson Baynam,5569 Marcy Center,Salinas,93907,831-634-0113,California
Pauletta Biesinger,6 Arrowood Lane,Bakersfield,93381,661-788-5850,California
Gerry Torrejon,76 Starling Junction,South Lake Tahoe,96154,530-504-8755,California
Hatti Ashmore,738 Saint Paul Street,San Jose,95150,408-438-7535,California
Monique Stirrup,78656 Jackson Junction,Irvine,92612,949-198-8461,California
Archie MacDermot,0 Milwaukee Junction,San Bernardino,92410,951-264-9147,California
Ottilie Bard,03 Rutledge Circle,San Diego,92132,619-730-7516,California
Mela Januszewicz,2864 Hanson Trail,Fresno,93704,209-131-6540,California
Lucienne Rockhall,89598 Badeau Alley,Fresno,93704,559-506-5714,California
Kellen Olenichev,45 Barby Parkway,Los Angeles,90081,213-478-7131,California
Bone Charkham,963 Oneill Hill,San Diego,92160,619-145-1852,California
Christa Rubinov,502 Ryan Hill,Visalia,93291,209-694-2407,California
Boycey Norvell,05 Porter Way,Pasadena,91103,626-363-9960,California
Sherrie Shipp,917 Vahlen Road,Los Angeles,90040,310-174-0524,California
Hinze Ashton,4030 Redwing Parkway,Fresno,93773,559-906-8851,California
Sebastiano Callicott,33604 Ryan Plaza,Los Angeles,90010,562-859-3090,California
Janela Bernaert,44659 Talisman Crossing,San Diego,92115,619-662-6335,California
Cherlyn Smullen,75 Rusk Park,Alhambra,91841,626-531-0497,California
Martie Heyward,5812 Scofield Center,South Lake Tahoe,96154,530-888-8587,California
Jania Purrier,44 Namekagon Plaza,San Jose,95160,408-716-8079,California
Wanids McMillan,4 Armistice Avenue,Los Angeles,90055,213-722-7548,California
Minnie Dargavel,640 Shasta Plaza,Sacramento,95894,916-123-3543,California
Germain Andrieu,1 Fallview Junction,Sacramento,95818,916-689-2345,California
Dixie Stolle,8207 Lakewood Gardens Terrace,Torrance,90510,818-653-3688,California
Alyda Ivanitsa,8 Main Street,Sacramento,95818,916-467-3098,California
Aimee De Zamudio,1 Nancy Lane,Simi Valley,93094,805-717-7865,California
Reina Steeples,6 Lunder Drive,Carlsbad,92013,760-477-8427,California
Glenna Norwood,9 Red Cloud Hill,Santa Ana,92705,949-900-1570,California
Theodora Giacovazzo,19626 Gina Parkway,Palo Alto,94302,310-327-8971,California
Korella Broseman,078 Debra Parkway,Bakersfield,93386,661-332-7105,California
Ginnifer Spincks,2900 Bay Terrace,Inglewood,90310,310-987-6358,California
Danella Driussi,8 Alpine Alley,Santa Barbara,93106,805-110-8523,California
Aldridge Petrou,65 Dayton Alley,Sacramento,95833,530-180-9440,California
Ches Sudlow,063 Russell Place,Los Angeles,90005,323-295-7297,California
Karyl Leed,81747 Stoughton Point,Fresno,93778,559-568-8057,California
Yovonnda Leathlay,02 Red Cloud Center,Concord,94522,925-645-4242,California
Madelaine Graeme,89600 Messerschmidt Circle,Los Angeles,90015,323-517-4997,California
Ferrell Shankster,97287 Ludington Terrace,San Diego,92127,619-476-0489,California
Glynis Wagge,654 Cottonwood Trail,Stockton,95298,209-108-5116,California
Bridie Alp,886 Hovde Street,Ventura,93005,805-297-2466,California
Lorna Mecozzi,790 Express Center,Bakersfield,93386,661-934-6628,California
Gilles Mounter,9 Hoepker Lane,Burbank,91505,818-548-0501,California
Tobi Lodemann,4032 Claremont Alley,Berkeley,94705,510-406-7360,California
Louisa Fearick,59 Golden Leaf Avenue,Los Angeles,90094,323-119-2051,California
Barth Crockley,77 Park Meadow Circle,Bakersfield,93381,661-970-8817,California
Kimberlyn Heinreich,8885 3rd Pass,San Diego,92115,619-951-7937,California
Harrie Ryrie,10580 Badeau Point,San Diego,92186,619-207-5101,California
Roscoe Bowkley,15 Stephen Junction,Fresno,93794,559-341-8105,California
Orin Levington,95158 Del Sol Junction,Inglewood,90305,310-319-0188,California
Jae Roseaman,98363 Lillian Court,Redwood City,94064,650-348-8730,California
Margie Hicks,7 Hollow Ridge Center,Irvine,92612,714-927-6819,California
Felita Ambler,32463 Kim Pass,Sacramento,94250,916-699-5842,California
Suzann Shalcras,72488 Mallory Avenue,Northridge,91328,818-139-9354,California
Kania Baum,5 Anthes Lane,San Diego,92153,619-673-0279,California
Chen Souness,34 Arkansas Junction,San Jose,95123,408-276-9625,California
Arie Pennington,7969 Veith Pass,Fresno,93715,209-972-4505,California
Amanda O'Hdirscoll,40 Merchant Center,San Luis Obispo,93407,805-332-3800,California
Janot Huddlestone,44 Elmside Lane,San Diego,92176,619-606-1591,California
Farrah Kynastone,37072 Ohio Terrace,Los Angeles,90071,562-314-9994,California
Inglebert Withey,0 Dorton Place,Fullerton,92640,559-192-5023,California
Christopher Gossart,413 Comanche Terrace,San Jose,95108,408-440-0484,California
Floyd Edgcumbe,923 3rd Center,Irvine,92717,714-160-8519,California
Rosemarie Rickell,8267 Browning Hill,Sacramento,95852,916-271-6746,California
Kris O'Murtagh,85957 Kinsman Avenue,Whittier,90610,562-144-9015,California
Celle Cornelissen,4 Barnett Point,Fullerton,92640,559-234-8093,California
Kalila Capell,763 Russell Way,Berkeley,94705,510-591-7833,California
Valentin Skeldon,8604 Lunder Road,San Francisco,94177,415-202-9205,California
Johannah McLaughlin,1 Hoepker Place,Newport Beach,92662,949-868-2662,California
Steffie Fison,1687 Sheridan Hill,Fresno,93778,559-815-0863,California
Ester Riby,6746 Mayfield Park,Orange,92862,714-661-5016,California
Vernice Axten,2 Kings Drive,Fresno,93726,209-622-8634,California
Davey Lanchester,018 Thackeray Park,Long Beach,90805,310-640-8037,California
Xymenes Crocetto,0240 Melody Plaza,San Diego,92121,760-651-2122,California
Alisander Hain,6 Stang Lane,Los Angeles,90065,323-639-6185,California
Lydia Beasant,0 Forest Circle,Fresno,93740,559-944-5209,California
Kylie Sowman,83 Gerald Pass,Redwood City,94064,650-539-8302,California
Albie Tingle,561 Novick Terrace,Modesto,95354,209-323-8896,California
Claudell Langer,9 Hovde Circle,Van Nuys,91499,213-824-7855,California
Tersina Longwood,63543 Elgar Terrace,San Luis Obispo,93407,805-706-2828,California
Wilone Gavaran,54943 Pepper Wood Junction,San Francisco,94177,415-696-3008,California
Ludovico Chant,085 Di Loreto Avenue,San Francisco,94116,415-277-6852,California
Peri Dunbar,18 Jay Trail,Simi Valley,93094,805-934-5265,California
Corinne Giblin,1966 Stang Court,Oakland,94611,415-567-1359,California
Drona Bemwell,28 La Follette Pass,Brea,92822,818-259-3135,California
Walden Whorton,93 Delladonna Plaza,Long Beach,90847,562-475-4868,California
Elliot Alloway,451 Hudson Park,Palmdale,93591,661-936-7907,California
Brigida Williamson,84 Milwaukee Street,Santa Cruz,95064,831-322-8048,California
Nelly Cosh,83 Iowa Plaza,Fresno,93726,559-821-2293,California
Sharl Grocutt,00 Northport Pass,San Diego,92191,619-861-9463,California
Dulcy Margrett,063 Mccormick Parkway,Burbank,91520,323-848-1441,California
Sondra Ryal,6 Merry Plaza,San Jose,95123,408-772-2661,California
Kathye Caff,84 Hayes Alley,Oxnard,93034,805-995-5279,California
Ossie Blacket,76740 Coolidge Road,Santa Cruz,95064,831-530-0278,California
Ariadne Gabbot,96593 Meadow Valley Way,Modesto,95354,559-364-6108,California
Chic Keay,87 Nova Avenue,Los Angeles,90010,408-308-1556,California
Katey Swalwel,2967 Coleman Crossing,San Bernardino,92410,909-911-5199,California
Carilyn Minthorpe,2 Judy Point,Sacramento,95838,916-613-0029,California
Savina Baldetti,43512 New Castle Crossing,Oakland,94622,510-339-8767,California
Jena Loyns,1 Golf Course Drive,Chula Vista,91913,619-818-0450,California
Arny Lowes,90907 Oneill Center,San Francisco,94126,415-789-3352,California
Ynes Ratcliffe,68604 Independence Hill,Pasadena,91125,626-296-0283,California
Thomasin Kahane,374 Sunnyside Center,Los Angeles,90045,650-839-7646,California
Haslett Trubshawe,10365 Nova Pass,Pasadena,91199,626-970-9762,California
Linet Gozzard,87 Gulseth Junction,Fresno,93786,559-224-0855,California
Allin Mumberson,7436 Mallory Lane,San Diego,92127,760-335-3498,California
Quinn Garretts,421 Calypso Court,Sacramento,95823,510-418-7357,California
Juliane House,462 Armistice Circle,San Diego,92127,858-162-6268,California
Dilly Sives,7942 High Crossing Point,Salinas,93907,831-687-1213,California
Cathryn Czajka,37 Shasta Center,Pasadena,91125,626-319-9100,California
Winfield Hunton,9 Armistice Plaza,Orange,92668,760-427-2267,California
Guglielmo Kunz,4634 Stephen Park,Oakland,94611,415-415-0494,California
Idaline Oldmeadow,91889 Jenna Trail,Los Angeles,90094,323-707-2893,California
Gnni Martignon,43 Arkansas Junction,Fresno,93794,559-934-0617,California
Merrielle Lavers,5 Corscot Park,Riverside,92505,909-169-7980,California
Junia Anstee,04727 Westport Pass,Anaheim,92825,714-846-8030,California
Rosmunda Spearett,400 4th Junction,San Francisco,94159,415-449-9691,California
Roldan Croix,341 Buell Pass,San Bernardino,92424,909-398-7197,California
Linell Joder,5 Mccormick Park,Orange,92862,714-794-7741,California
Garrik Barkes,0 Dottie Park,Pasadena,91109,626-805-2822,California
Odette Utterson,0 Johnson Court,Pasadena,91109,626-985-4888,California
Frannie Shapland,05 Fairview Street,Brea,92822,714-882-5198,California
Hunter Grzeskowski,95147 3rd Avenue,San Diego,92121,760-111-7390,California
Kellby Donati,00802 Anzinger Lane,Burbank,91520,626-896-3872,California
Page Stockley,4001 Oakridge Lane,San Bernardino,92415,760-629-1353,California
Ingaberg Hanaby,43 Erie Park,Escondido,92030,760-764-0834,California
Elvin Lambshine,6766 Fallview Street,Fresno,93750,559-250-9774,California
Molly Mifflin,84 Farwell Junction,San Jose,95138,408-594-6834,California
Trudey Vasilchenko,63 Ridgeway Crossing,San Francisco,94169,415-325-0438,California
Harold Oswell,964 Mcguire Point,Irvine,92612,714-287-5626,California
Harp Redolfi,9 Veith Pass,Bakersfield,93399,661-115-9856,California
Cori Napolitano,29023 Brown Lane,Irvine,92612,510-186-2172,California
Maitilde Dupre,50 Aberg Road,Sacramento,95818,916-767-9062,California
Taffy Dawton,8492 4th Hill,San Luis Obispo,93407,805-865-3601,California
Fidela Mulliner,3435 Butternut Way,Fresno,93750,559-431-3265,California
Jori Wynch,6 New Castle Point,Los Angeles,90015,213-994-1993,California
Andeee Trendle,5 Russell Street,Corona,92883,626-537-0565,California
Waylan Preddy,475 Dwight Parkway,San Diego,92132,858-203-2264,California
Alexandro Reeme,63278 Mifflin Park,San Diego,92115,619-944-2244,California
Jaquenetta Lunn,2305 Esch Avenue,Sacramento,94280,916-879-1772,California
Linc Childe,8077 Hoffman Plaza,San Bernardino,92424,909-747-7893,California
Delaney Breed,8 Dryden Trail,Orange,92668,858-216-2926,California
Susanne Reihill,63 Columbus Center,Pasadena,91125,626-399-5449,California
Morlee Uridge,08 Granby Avenue,Oakland,94605,510-898-7445,California
Bessie Tallman,4 Macpherson Crossing,Los Angeles,90081,213-780-7274,California
Kathryne Skechley,82091 Hagan Hill,Los Angeles,90050,213-304-1472,California
Jessi Sowter,9322 Straubel Street,Fresno,93778,559-610-0126,California
Tiffanie Daymond,367 Parkside Pass,Santa Cruz,95064,831-934-2301,California
Chloette Elland,2072 Porter Parkway,Long Beach,90847,562-935-8716,California
Amandy Bunney,562 Sunbrook Avenue,San Diego,92196,619-793-3236,California
Andrus Rysom,9 Claremont Park,Oakland,94605,510-104-0814,California
Pieter Kidsley,6786 Eliot Avenue,San Francisco,94142,415-609-2172,California
Hildegarde Lynd,658 Lindbergh Hill,Simi Valley,93094,805-400-2726,California
Horacio Standon,23 Fremont Trail,Pasadena,91103,626-226-1842,California
Nicolais Argo,863 Northridge Way,Oakland,94611,415-970-1470,California
Freddy Van Oord,3762 Lake View Road,Modesto,95397,209-415-1214,California
Kellia Warwicker,73802 Roth Avenue,Garden Grove,92645,714-151-5523,California
Minni Cullrford,5540 Monument Plaza,Los Angeles,90015,818-370-6771,California
Otes Luckett,5841 Valley Edge Parkway,Los Angeles,90071,424-369-5013,California
Karole Canadine,12 Montana Junction,Orange,92668,760-396-5465,California
Lula Delacroux,1 Forster Pass,Irvine,92612,949-907-8738,California
Patrizio Coolbear,94 Sutherland Drive,San Francisco,94169,415-945-9738,California
Otha Darthe,5810 Veith Circle,Bakersfield,93386,661-554-1806,California
Allegra Domini,84667 Independence Parkway,San Diego,92153,619-784-4272,California
Whitney McConigal,36 Cambridge Terrace,Anaheim,92825,714-954-5405,California
Ryley Leyborne,69775 La Follette Park,Orange,92867,714-667-6613,California
Chere Murr,5 Kipling Parkway,Santa Barbara,93150,805-445-8745,California
Sky Meus,8 Schurz Drive,Irvine,92717,714-607-6456,California
Waldemar Wyllcocks,71518 Ridgeview Way,Stockton,95205,209-516-4872,California
Correna Spore,2569 Anderson Pass,San Francisco,94177,415-267-2876,California
Alejoa O'Meara,4 Mitchell Drive,San Diego,92127,760-488-6484,California
Cirillo Sturzaker,547 Leroy Junction,San Diego,92153,619-830-8516,California
Douglass Baggarley,73167 Pine View Street,Pasadena,91186,626-434-0390,California
Irena Lumsdall,0992 Oakridge Way,Sacramento,94280,916-299-6719,California
Tull Roddie,834 Aberg Avenue,San Francisco,94142,415-491-6546,California
Traver Janks,2 Talisman Pass,Fresno,93715,209-621-2920,California
Isak Deviney,6883 Rigney Alley,Santa Ana,92705,619-108-7866,California
Tybi Morse,51348 Merchant Center,Palmdale,93591,661-811-6697,California
Louisette Eite,552 Toban Junction,Chico,95973,916-149-2947,California
Godwin Tubby,2 Dennis Street,Anaheim,92805,310-530-3227,California
Wittie Glencros,15179 Twin Pines Lane,Irvine,92717,714-334-8742,California
Prentice Gatenby,0 Macpherson Place,Pasadena,91117,626-498-9612,California
Marylinda Galliard,0247 Spenser Hill,Richmond,94807,510-753-7903,California
Mala Varey,4 Eggendart Crossing,Van Nuys,91499,213-527-5453,California
Henderson Waldron,67218 Sommers Court,Fresno,93726,559-887-7320,California
Celestia Hallin,621 Autumn Leaf Plaza,Fresno,93786,559-365-7175,California
Dianne Titt,30 Kingsford Avenue,San Jose,95128,714-494-8647,California
Aloysius Knowlton,42858 Texas Way,Bakersfield,93305,805-645-0621,California
Nadine Beynke,9 Prairie Rose Trail,Sacramento,95894,916-709-5305,California
Gordie McIsaac,78 Fordem Way,Pasadena,91186,626-767-6197,California
Nevsa Wards,2 Londonderry Terrace,Fresno,93762,559-541-3331,California
Mart Cooke,0751 Quincy Park,San Diego,92191,619-437-3983,California
Vida Tudgay,03414 Chinook Street,Sacramento,94250,916-168-0688,California
Nertie Carlyle,129 Sugar Circle,Bakersfield,93305,661-725-7408,California
Eleanora Crumpton,5 Chinook Parkway,Santa Monica,90410,310-378-4511,California
Honey Le Prevost,044 Dahle Trail,Santa Cruz,95064,831-341-3953,California
Dominique Janosevic,6 Lunder Terrace,Stockton,95205,209-507-8550,California
Elijah Halloran,3 Chinook Street,Huntington Beach,92648,562-782-8523,California
Aldrich Meredyth,5076 Cardinal Place,Burbank,91505,626-451-7314,California
Aubrie Silverston,332 Eagle Crest Place,Garden Grove,92645,714-792-4409,California
Lorene McCurdy,563 Darwin Lane,Irvine,92619,949-169-7298,California
Dante Matiebe,3 Prairie Rose Lane,San Bernardino,92405,909-458-5489,California
Sosanna Scurry,9 Muir Drive,Richmond,94807,510-707-1473,California
Adeline Brands,303 Florence Circle,San Jose,95118,408-362-0875,California
Archy Raynes,3243 Maple Wood Trail,Bakersfield,93311,661-237-9284,California
Melodee Lawrie,3313 Bluestem Road,Oakland,94605,510-800-4551,California
Sebastiano Duchart,0 Anderson Center,Santa Ana,92725,714-690-8177,California
Leshia Sinson,8299 6th Point,San Diego,92186,619-243-4208,California
Fidelity Lasslett,6 Monterey Lane,Los Angeles,90087,213-655-9553,California
Alexine Hellin,14 Oakridge Way,Fresno,93794,559-703-3864,California
Barnett Dovidian,539 Goodland Point,North Hollywood,91606,323-391-9915,California
Babbette Dracksford,78 Harbort Trail,Corona,92883,951-318-5229,California
Sidonia Tichelaar,87 Talisman Hill,Sacramento,94280,916-393-0366,California
Jany MacGettigen,75 Sutteridge Park,Fresno,93740,559-790-6500,California
Werner Bartlomieczak,195 Susan Pass,Sacramento,95813,916-564-3336,California
Fritz Dominelli,8 Green Ridge Pass,Sacramento,95833,916-236-1477,California
Ella Boatwright,54 Bunting Plaza,Bakersfield,93386,661-598-9563,California
Cullen De Gogay,427 Reinke Terrace,San Diego,92176,619-224-8862,California
Cori Verrillo,9944 Sloan Lane,San Jose,95133,408-569-1528,California
Sal Mylchreest,8129 Gerald Park,San Bernardino,92405,909-251-9247,California
Amalea McCracken,450 Lyons Circle,Santa Clara,95054,408-859-3319,California
Rad Sevitt,26 Ronald Regan Center,San Luis Obispo,93407,805-818-6233,California
Flemming O'Keeffe,404 Bunting Crossing,San Diego,92145,619-595-0732,California
Mile Trenfield,6 Schiller Avenue,San Jose,95118,408-767-8972,California
Yancy Roffe,14216 Forest Hill,Los Angeles,90010,818-468-1787,California
Duke Howsan,1949 Jackson Pass,San Diego,92105,619-660-7038,California
Mirna Kisbee,04912 West Crossing,Palmdale,93591,661-909-1109,California
Roanne Ludy,88 Schiller Road,San Francisco,94126,415-749-9298,California
Samara Blodg,47 Magdeline Place,Santa Ana,92705,310-329-1811,California
Efrem Annies,4848 Rieder Terrace,Oxnard,93034,805-525-9084,California
May Wintle,93 Killdeer Plaza,San Diego,92132,619-224-9374,California
Yalonda Connell,4446 1st Junction,Santa Barbara,93111,805-710-6329,California
Sherri Giuroni,643 Center Place,Chula Vista,91913,619-850-0943,California
Michelina Shugg,372 Montana Crossing,Hayward,94544,925-112-3421,California
Jasper Lyptrit,76656 Mallard Plaza,Stockton,95210,209-937-4597,California
Karlen Lott,381 Sage Alley,Orange,92867,714-957-4460,California
Emilio Copes,9 Lien Road,Los Angeles,90005,562-283-2113,California
Waldo Roughley,252 Havey Avenue,Van Nuys,91499,213-679-7545,California
Joelly Dufoure,05 Michigan Avenue,Sacramento,94230,916-345-1587,California
Tabatha Parell,57 Knutson Way,Los Angeles,90081,213-837-7622,California
Clara Gonsalvez,4270 Delaware Circle,Chula Vista,91913,619-233-5239,California
Selene Imlach,711 Judy Pass,Bakersfield,93386,661-653-1108,California
Gilberta Abazi,155 Cottonwood Trail,Bakersfield,93381,661-211-7301,California
Bing Stille,5 Division Drive,Salinas,93907,831-993-6583,California
Ancell Delacroux,97426 Declaration Center,San Jose,95118,408-945-2327,California
Maude Vernon,839 Arizona Trail,Santa Barbara,93150,805-308-7800,California
Noni Sabatier,6195 Shopko Court,North Hollywood,91606,818-747-9311,California
Melantha Doswell,66729 Erie Drive,Los Angeles,90035,818-870-1387,California
Karoline Medford,68565 Lukken Parkway,San Jose,95123,408-612-2022,California
Halette Laviste,0903 Schurz Way,Long Beach,90810,310-967-4395,California
Marwin Southard,2 Kingsford Park,San Bernardino,92405,909-426-7925,California
Leena Crotty,83458 Elgar Terrace,Hayward,94544,925-673-3959,California
Mel Vannuchi,32 Mifflin Park,San Diego,92145,858-620-1992,California
Danyette Rhoades,10090 Scofield Court,San Diego,92165,619-266-9717,California
Fitzgerald Saldler,7774 Merrick Plaza,Sacramento,95838,916-367-1005,California
Paolina Fedorchenko,16888 Artisan Point,Los Angeles,90071,310-858-6430,California
Tuesday Wilfinger,71 Lakewood Gardens Pass,Anaheim,92805,562-592-0732,California
Claudetta Caveau,00078 Nelson Parkway,Moreno Valley,92555,951-289-7532,California
Melania McGreary,856 Meadow Vale Crossing,Sunnyvale,94089,408-842-7960,California
Fletch Scedall,10 Brentwood Way,Pasadena,91103,626-366-0563,California
Shena Stedmond,02 Moulton Hill,San Bernardino,92415,760-514-6646,California
Kevin Housam,089 Sauthoff Park,Los Angeles,90101,213-193-8461,California
Rhea Shortall,5038 Northwestern Road,Huntington Beach,92648,949-344-2666,California
Cynthie Gerrett,2515 Meadow Vale Street,Sacramento,94230,916-824-7936,California
Catarina Kayes,57 Warrior Alley,Pasadena,91199,626-217-9988,California
Maurene Brazer,0903 Mandrake Hill,San Diego,92132,619-955-5386,California
Jo-ann Wagnerin,24 Forest Dale Hill,Long Beach,90847,562-651-0508,California
Sydney Wiggett,3 Onsgard Drive,San Francisco,94147,415-388-2664,California
Isiahi De Malchar,242 Arapahoe Point,Redwood City,94064,650-618-3187,California
Alejandra Melbert,05597 Eagan Park,Fresno,93704,559-505-4411,California
Buddie Dowry,70 Washington Plaza,South Lake Tahoe,96154,530-790-9727,California
Marilee Mollnar,96 Delaware Road,Sacramento,95818,530-512-5768,California
Sloane Klimashevich,29 Prentice Drive,Sacramento,95838,916-982-1654,California
Jessamine Walkley,94 Blaine Drive,San Francisco,94142,415-133-4243,California
Sebastien Muzzollo,171 Fremont Road,Los Angeles,90050,213-206-3630,California
Johnath Jolliman,2 Knutson Crossing,Oxnard,93034,805-187-4660,California
Graehme Forsdicke,40797 Lukken Road,Concord,94522,925-734-8567,California
Sigismond Maskill,98621 Maple Wood Hill,Orange,92862,714-580-6261,California
Ruth McArthur,2260 Jackson Pass,Fresno,93794,559-962-6812,California
Darsey Crockley,453 Northwestern Park,Sacramento,94280,916-260-6692,California
Maegan Schapero,5614 Meadow Vale Alley,Irvine,92619,949-849-5187,California
Tildie Forth,43 Hintze Junction,San Diego,92153,619-568-3019,California
Burlie Osipenko,378 Maryland Junction,San Jose,95108,408-390-3006,California
Goldy Spittall,56 Mitchell Circle,Pasadena,91117,626-247-5561,California
Nicol Eglinton,745 Shopko Plaza,Pasadena,91117,626-823-5193,California
Gaynor Oliveto,7477 Gale Road,Sacramento,94230,916-677-7731,California
Katharyn Wildin,8158 Gale Plaza,Lancaster,93584,661-309-2098,California
Miles Haggath,37 Sauthoff Junction,Oxnard,93034,805-153-3190,California
Nanine Penswick,99 Bay Plaza,Berkeley,94705,510-300-6816,California
Bryana Haizelden,2 Starling Trail,Irvine,92710,714-970-9754,California
Dominik Lappine,85 Marquette Road,Carlsbad,92013,760-773-3311,California
Maren Peetermann,00055 Ridgeview Circle,Santa Ana,92705,213-210-8942,California
Julia Wem,76 Butternut Hill,San Francisco,94110,562-679-8452,California
Weston Phippard,1 Northwestern Park,Fullerton,92640,559-392-1718,California
Mathilde Reuben,4889 Barby Avenue,Palo Alto,94302,650-182-6309,California
Ronnica Argabrite,218 Raven Trail,San Diego,92110,949-912-2879,California
Justis Mazillius,35199 Charing Cross Hill,Sacramento,94291,916-979-7554,California
Eveleen Damrel,3896 Crescent Oaks Way,San Francisco,94159,415-480-0986,California
Derk Danzelman,018 Pleasure Place,Santa Barbara,93150,805-711-8399,California
Wain Rewbottom,46 Annamark Place,San Francisco,94142,415-540-6064,California
Artemas Noir,25895 Prairieview Court,San Diego,92105,619-595-6514,California
Romona Toby,16 Leroy Pass,Van Nuys,91499,213-734-2315,California
Doralynne Yaldren,53 Blaine Plaza,Garden Grove,92844,714-489-1650,California
Vinnie Birchall,26 Morningstar Avenue,Los Angeles,90010,949-430-0755,California
Eugene Gow,5 Utah Lane,Palo Alto,94302,310-940-9602,California
Christoph Dautry,55 Sloan Court,Van Nuys,91499,213-961-0708,California
Tommie Yakubovics,870 Goodland Place,Visalia,93291,209-844-5010,California
Duffy Ferrino,14232 Cottonwood Trail,Berkeley,94705,510-350-9872,California
Rob Meddemmen,94735 Ilene Pass,San Diego,92160,619-902-5176,California
Padraic MacCrachen,6507 Londonderry Plaza,Oakland,94611,510-838-8301,California
Bear Klimke,73670 Lindbergh Hill,San Diego,92137,619-225-3008,California
Eberhard Bathoe,383 Gale Junction,Fresno,93773,559-744-2194,California
Sylvan Chellam,0645 Farwell Avenue,San Diego,92196,619-220-8202,California
Brittni Inker,532 Fulton Point,Los Angeles,90060,323-766-3300,California
Griffy D'Aguanno,2017 Meadow Vale Alley,Inglewood,90305,323-587-5686,California
Karia Rickets,48 Badeau Avenue,Hayward,94544,925-552-3441,California
Rance Killingbeck,0 Annamark Street,Los Angeles,90025,323-255-1751,California
Cariotta Bick,838 Mariners Cove Center,North Hollywood,91616,213-211-8144,California
Skipton Spering,756 Brentwood Place,Los Angeles,90055,213-706-2247,California
Silvana Tidcomb,476 Bowman Trail,Stockton,95210,209-457-3879,California
Jordain Lawtey,8 Steensland Hill,Lancaster,93584,661-172-4644,California
Irvin Kelmere,08418 Westend Park,Riverside,92519,951-911-4531,California
Mariele Drakeford,951 Dexter Place,Northridge,91328,818-817-7902,California
Teddie Lindsay,77586 Lotheville Hill,Anaheim,92825,714-561-0666,California
Ailis Nend,8 Cherokee Avenue,Fresno,93750,559-749-0910,California
Patrizia Rigge,512 Butternut Drive,Anaheim,92825,714-760-7572,California
Wakefield Olliver,35760 Muir Pass,Fullerton,92640,559-958-6850,California
Stephi Coop,735 Mayer Trail,San Francisco,94132,415-344-8106,California
Ezri Malloch,77 Dayton Plaza,Huntington Beach,92648,562-223-1485,California
Sue Bawme,620 Quincy Trail,Los Angeles,90065,818-530-5298,California
Bourke Alker,19150 Mockingbird Point,Inglewood,90305,310-228-8550,California
Chad Oxbrough,0 Kinsman Place,Los Angeles,90071,424-244-5809,California
Rayshell Evert,9415 Green Pass,San Jose,95113,650-624-9225,California
Alessandra Sclanders,2380 Bunting Terrace,Pasadena,91186,626-273-7016,California
Catina Dows,3597 Dahle Alley,Pasadena,91117,626-869-0575,California
Bartlet Bampfield,34 Paget Lane,San Diego,92137,619-912-8570,California
Kurt Tanswill,15595 Banding Park,Los Angeles,90087,213-397-8777,California
Trudi Merryman,342 Steensland Court,San Jose,95150,408-398-7184,California
Kellyann Kerman,09244 Farwell Lane,San Bernardino,92424,909-453-7445,California
Kelila MacCarlich,5822 Valley Edge Alley,Fresno,93726,559-391-1967,California
Karen Vondrys,083 Monument Drive,Orange,92668,858-925-7398,California
Meghann Emtage,408 Bluestem Junction,Los Angeles,90076,323-954-0770,California
Ardyth Posselow,45 Melvin Way,Sacramento,95852,916-237-7541,California
Kathy Lamcken,0400 South Alley,Pasadena,91109,818-136-5076,California
Cordelie Avis,2 Petterle Circle,Los Angeles,90020,626-439-4038,California
Bradley Athey,5 Cordelia Plaza,Riverside,92513,951-695-8441,California
Cyndi Venditto,64684 Birchwood Way,San Jose,95138,408-915-2317,California
Tabbi Strete,58 Ilene Way,Fresno,93704,209-554-5805,California
Stearn Pomfret,2 Golf Course Park,Northridge,91328,818-801-4349,California
Duke Baldi,4023 Golf Course Plaza,Fresno,93740,559-847-2122,California
Alberta Avieson,320 Macpherson Terrace,Modesto,95354,209-563-4902,California
Stacy Bew,2 Badeau Park,San Luis Obispo,93407,805-951-6837,California
Juliann Keatley,41 Luster Park,San Francisco,94116,415-319-2263,California
Florrie Houndson,282 Duke Drive,Chico,95973,530-838-9217,California
Mersey Freezor,46832 Blackbird Hill,Inglewood,90310,310-328-1537,California
Christophe Stoffersen,162 Troy Drive,San Francisco,94147,415-615-2789,California
Tina Lathleiffure,5322 Randy Avenue,Sacramento,94245,916-590-6542,California
Pru Dunbabin,55 Shelley Avenue,Fresno,93794,559-203-0832,California
Ingmar Gooda,3303 Vidon Drive,Sunnyvale,94089,650-214-4713,California
Philbert Saulter,26538 Kim Pass,Sacramento,95833,530-943-0265,California
Ado Cornford,9439 Derek Junction,Los Angeles,90076,323-463-0512,California
Raf Jent,5 Kings Drive,Los Angeles,90015,818-544-1341,California
Alain Pentland,64 Spaight Court,Redwood City,94064,650-784-7837,California
Jenn Trousdale,16410 Armistice Plaza,San Diego,92186,619-200-8414,California
Lilly Jobin,5 Hanson Circle,Los Angeles,90101,213-274-9449,California
Eustace Ivanusyev,04800 Mallard Street,Garden Grove,92645,714-247-4301,California
Tabb Digby,7 Village Green Way,San Francisco,94147,415-984-8703,California
Bar McCudden,2 Rockefeller Avenue,Concord,94522,925-705-5528,California
Hewitt Wilding,22 Manley Alley,Fresno,93786,559-129-3657,California
Minnie Guerro,45 Fuller Trail,Pomona,91797,909-380-2001,California
Willy Byne,8 Arizona Hill,San Francisco,94105,310-690-9995,California
Gilbertine Ludron,698 Sauthoff Trail,San Francisco,94147,415-263-6834,California
Goober Byfford,5263 Rieder Parkway,Riverside,92513,951-672-2888,California
Cirilo Abendroth,88 Southridge Crossing,Oakland,94660,510-687-0378,California
Ludvig Cocher,6204 Lillian Center,Fresno,93726,209-627-9656,California
Jaclyn Zambon,2582 Glendale Alley,Oakland,94622,510-961-3359,California
Cristabel Holleran,3 Schmedeman Trail,San Francisco,94137,415-788-5214,California
Mal Cisland,4 Westridge Junction,Oakland,94616,510-498-4473,California
Maitilde Lagen,9488 Spaight Circle,Petaluma,94975,707-872-1886,California
Madlin Allchorne,93 Park Meadow Crossing,Irvine,92717,714-275-3948,California
Ortensia Dowderswell,6317 Cottonwood Place,Richmond,94807,510-801-3865,California
Isidoro Slot,01097 Tennessee Hill,San Diego,92132,858-729-8559,California
Aldo Yakushkin,5555 Di Loreto Drive,Fresno,93778,559-269-2295,California
Philipa Gretham,8 Prairieview Junction,Fresno,93750,559-875-7323,California
Rhianna Fassbender,71200 Burning Wood Place,San Diego,92132,858-753-3262,California
Lotte Gerber,875 Bonner Avenue,San Francisco,94164,415-831-7331,California
Adelbert Monkhouse,9332 East Junction,Fullerton,92640,559-159-3924,California
Adrienne Johnsey,7 Center Park,San Francisco,94105,650-764-9015,California
Itch Spavon,225 Butterfield Junction,San Jose,95173,408-953-7695,California
Cloris Oleszkiewicz,27255 Manley Lane,Long Beach,90810,562-943-5285,California
Cyrille Asbery,08 Schlimgen Avenue,Sacramento,95823,510-866-8056,California
Marena Conquest,95 Paget Park,San Jose,95123,408-188-8511,California
Lyell St. Ledger,61 Main Way,Concord,94522,925-342-8473,California
Stephan McMackin,385 Summer Ridge Junction,San Jose,95155,408-351-4619,California
Martha Mumbey,0 Talisman Way,Bakersfield,93381,661-746-8938,California
Frieda Rivel,0409 Charing Cross Drive,Santa Monica,90410,310-313-8683,California
Orsa MacGill,2 Glendale Court,Modesto,95354,559-495-5885,California
Emanuel Revie,0 Hermina Circle,Los Angeles,90189,213-574-3421,California
Cazzie O'Hone,6 Onsgard Junction,San Francisco,94105,415-663-5198,California
Natal Kerrigan,6 Superior Hill,Santa Rosa,95405,707-685-7455,California
Jarrad Rey,08 Hudson Hill,Los Angeles,90030,213-245-3596,California
Victoir Fasey,012 Moose Crossing,Van Nuys,91411,626-233-2391,California
Darsie Merrgen,2 Cambridge Park,Los Angeles,90101,213-599-7043,California
Den Porson,97 Dexter Place,San Francisco,94177,415-304-6604,California
Anthony Kinnane,8 Boyd Avenue,Irvine,92717,714-694-3317,California
Wayland Bonevant,99 Northridge Center,Sacramento,94257,916-694-9286,California
Travus Magnay,98 Gulseth Lane,Bakersfield,93305,661-315-3431,California
Dione Gibbieson,2 Clemons Street,Stockton,95210,209-421-4598,California
Dacy Ratazzi,4 Merchant Place,Bakersfield,93381,661-267-1758,California
Thaxter Mc Trusty,5953 Huxley Point,Sacramento,95828,916-487-0307,California
Malvina Ten Broek,5 Ilene Road,Bakersfield,93311,661-494-2876,California
Jerrilyn Rivers,44 Prairie Rose Center,Irvine,92612,714-310-3384,California
Jerrome Oake,44391 Shelley Trail,Irvine,92710,714-670-1495,California
Lorry Dandie,44036 Mandrake Avenue,Santa Barbara,93111,805-838-9598,California
Hinda Venton,839 Corscot Park,Chico,95973,530-577-1006,California
Bernette Blanking,7692 Macpherson Park,Fullerton,92640,559-770-2487,California
Trevor Ivanyushin,0320 Hayes Alley,Visalia,93291,209-873-2458,California
Rebeka Blabey,6275 Burrows Junction,San Jose,95133,408-495-8701,California
Jory Aleksashin,684 Mayer Plaza,San Diego,92176,619-240-6297,California
Gael Ginni,18346 Barby Parkway,Fresno,93773,559-975-7452,California
Trix Rayer,84253 Michigan Circle,Pasadena,91131,626-819-2191,California
Warden Blackwell,71388 Jay Lane,Fresno,93786,559-103-8549,California
Laural Canizares,723 Waubesa Circle,Sacramento,94230,916-500-3276,California
Jeanelle Traill,9360 Nevada Lane,Ventura,93005,805-472-8929,California
Gal Sannes,868 Melody Way,Los Angeles,90060,323-449-5031,California
Mata Evenett,82 Pennsylvania Crossing,Chico,95973,916-136-3239,California
Betta Tiffney,6720 East Point,Santa Clara,95054,831-187-0907,California
Nara Faye,7283 Springs Drive,San Diego,92160,619-717-8940,California
Hart Jewers,97 Dakota Street,San Diego,92115,619-591-6967,California
Mignonne Tedder,7481 Swallow Alley,Sacramento,94263,916-613-3876,California
Tamma Brotherick,53 Brentwood Way,Stockton,95219,209-955-6167,California
Tripp Scriven,21 Vahlen Pass,Stockton,95298,209-556-3032,California
Pollyanna Higgen,1290 Tomscot Plaza,Oakland,94627,510-862-8313,California
Niccolo Boyack,56 Reindahl Junction,Long Beach,90847,562-136-9675,California
Tisha Rasor,6058 East Pass,Van Nuys,91411,213-536-0151,California
Jorgan Haggith,9562 Troy Point,Long Beach,90831,562-151-6876,California
Karel Bryan,0 Chinook Parkway,San Jose,95173,408-930-0973,California
Raychel Rens,5 Sullivan Point,Oakland,94616,415-458-7627,California
Townie Melwall,3314 Bobwhite Crossing,San Jose,95160,408-890-9268,California
Davis Osbiston,7079 Victoria Avenue,San Francisco,94169,415-365-0399,California
Idelle Hallor,41548 Kedzie Pass,San Diego,92137,619-583-1983,California
Donella Tarzey,103 Daystar Street,Glendale,91205,818-935-8996,California
Wiatt Egarr,88918 Lien Street,Huntington Beach,92648,760-487-5213,California
Tara Belham,982 Jenifer Terrace,Sacramento,94245,916-152-0396,California
Cherri Crosfield,319 Saint Paul Way,Glendale,91210,818-532-4257,California
Meggie Leckey,2775 Hoffman Alley,Oakland,94627,510-581-5113,California
Fredra Sherbrook,1 Prentice Court,Sacramento,95823,916-510-2650,California
Trixie Craufurd,7 Sunfield Court,Los Angeles,90060,323-426-9802,California
Margalit Youles,62 Towne Park,Los Angeles,90050,213-543-8835,California
Julie Ritson,8 Grover Road,Torrance,90505,310-711-0508,California
Xever Eble,290 Amoth Drive,Pasadena,91125,626-117-7654,California
Gnni Cunnow,68 Longview Parkway,Los Angeles,90087,213-371-1160,California
Fitzgerald Yapp,4 Prentice Crossing,Santa Ana,92725,714-593-2384,California
Shelton Ormonde,689 Talisman Alley,Santa Cruz,95064,831-728-6184,California
Hersh Dredge,2 Logan Drive,Oxnard,93034,805-731-5958,California
Iosep Ferenczy,78488 Reindahl Terrace,Stockton,95205,209-637-1524,California
Hobart De Mico,49323 Lakewood Gardens Parkway,Sacramento,94280,916-237-5371,California
Sherye Doe,72 Pawling Crossing,San Jose,95113,408-190-4856,California
Sabine Neles,019 Gina Street,Riverside,92519,951-630-8536,California
Danna Povlsen,89876 Manufacturers Plaza,Fresno,93750,559-751-4450,California
Lou Castanie,0 Upham Avenue,Los Angeles,90020,818-403-1547,California
Brittany Pinare,667 Stone Corner Trail,Anaheim,92825,714-504-8029,California
Tammie Cholonin,31444 Mandrake Junction,San Jose,95108,408-984-3698,California
Reyna Churchin,83 Chive Drive,Newport Beach,92662,714-635-1678,California
Brigitte McCurtin,13476 Northridge Trail,Petaluma,94975,707-678-2887,California
Claribel Hawsby,541 Grasskamp Junction,Redwood City,94064,650-363-7800,California
Valeria Croxton,09015 Sunfield Parkway,Los Angeles,90030,213-779-2133,California
Briny Moxstead,523 Bay Way,San Jose,95128,714-447-6499,California
Madeleine Rubinivitz,5803 Scoville Point,Corona,92878,951-369-8927,California
Nady Luna,322 Twin Pines Junction,San Francisco,94110,562-383-6819,California
Carree Stroulger,56 Forest Dale Parkway,Los Angeles,90005,562-740-6224,California
Cal MacMearty,9019 Rockefeller Parkway,Sacramento,94245,916-192-7064,California
Reinaldo Chaves,96375 Moulton Hill,Pasadena,91131,626-594-6607,California
Lewes Holt,24 Rieder Center,Orange,92862,714-422-7715,California
Benny Wanderschek,045 3rd Terrace,Pasadena,91186,626-276-3693,California
Nathanial Jewise,29257 Mandrake Street,Irvine,92710,714-186-8681,California
Job MacCurlye,83218 Holy Cross Park,Berkeley,94705,510-108-4998,California
Agathe Elcum,7 Oxford Lane,San Francisco,94110,415-519-1660,California
Dody Geldert,2 Meadow Ridge Pass,Pasadena,91109,626-716-3701,California
Robbyn Chew,4 Warrior Park,Carlsbad,92013,760-696-9102,California
Frederique Instone,1 Basil Way,San Francisco,94154,415-180-0033,California
Lanna Pagelsen,6 Canary Center,Fresno,93786,559-784-7952,California
Ede Eyeington,2 Paget Avenue,Van Nuys,91411,323-628-4790,California
Mendie Hawker,8 Porter Street,Sacramento,95894,916-602-9750,California
Reamonn Georg,37477 Dennis Trail,San Diego,92137,619-911-5098,California
Nikos McCroary,24861 Merry Avenue,Fresno,93794,559-220-2797,California
Shae MacFarlane,099 Bunker Hill Crossing,Sacramento,95838,916-990-7541,California
Agatha Disley,97941 Marquette Parkway,San Francisco,94132,415-552-1636,California
Oralie Mangan,56 Canary Park,Oceanside,92056,760-792-6198,California
Hildy Goodfellowe,402 Birchwood Center,San Bernardino,92424,909-273-9060,California
Sheeree Domico,483 Roxbury Lane,San Diego,92127,619-696-7587,California
Zulema Daveran,2612 Express Junction,Sacramento,95823,916-397-3098,California
Christine Winslett,990 Sunnyside Alley,North Hollywood,91606,818-973-1532,California
Jayme Wildt,46 Namekagon Crossing,Los Angeles,90040,626-158-8866,California
Neils Langton,68 Nancy Point,Pasadena,91117,626-281-4182,California
Kory Georgeson,54 South Hill,Sacramento,95865,916-347-3474,California
Dyan Brownill,79454 Red Cloud Road,Santa Monica,90410,310-786-3013,California
Crosby Cossem,579 Charing Cross Trail,San Jose,95173,408-376-9551,California
Augy Rucklidge,641 Colorado Crossing,Garden Grove,92844,310-769-3335,California
Nydia Crownshaw,92 Rowland Street,San Diego,92196,619-521-4416,California
Garrek Hammand,34 Continental Court,Lancaster,93584,661-307-4260,California
Zenia McGiffin,735 Anhalt Pass,Oakland,94622,510-974-1804,California
Algernon Picot,6 Wayridge Park,Sunnyvale,94089,650-440-6521,California
Inigo Pennington,0299 Continental Pass,San Bernardino,92410,951-280-4966,California
Gino Kearle,98 Jay Plaza,Chula Vista,91913,619-431-4728,California
Patricio Moorton,78 Ruskin Crossing,Simi Valley,93094,805-428-4264,California
Kimball Corriea,02755 Dovetail Terrace,Lancaster,93584,661-290-5075,California
George Reames,00798 Judy Pass,San Bernardino,92415,909-389-2919,California
Ferd Arunowicz,9 Green Point,North Hollywood,91606,323-693-8412,California
Ahmed Bampfield,01006 Bluestem Trail,Fresno,93773,559-722-6594,California
Hilda Coathup,33022 Emmet Place,Los Angeles,90055,213-856-5734,California
Pincus Kibard,6798 Annamark Way,Oakland,94660,510-418-6504,California
Leon Prout,82 Waywood Court,San Bernardino,92415,909-881-1246,California
Rikki Aksell,1186 Red Cloud Terrace,Sacramento,94286,916-594-2304,California
Paola Ackred,80300 Del Mar Point,Oakland,94616,510-596-9244,California
Osmund Fanshaw,14595 Menomonie Avenue,Santa Barbara,93106,805-381-9492,California
Nana Kubanek,60458 Oak Lane,Sacramento,94280,916-962-5388,California
Celinda Condon,0257 Mariners Cove Lane,Pasadena,91186,626-685-5437,California
Wolfie Ogbourne,920 Sugar Pass,Whittier,90610,562-150-9245,California
Claus Ahrenius,3983 Little Fleur Pass,Los Angeles,90015,562-332-0941,California
Ardyce McIlroy,059 Washington Court,Oakland,94616,415-520-5800,California
Addy Manie,515 Killdeer Place,Sacramento,95865,916-397-8569,California
Maude Fairtlough,3 Merrick Alley,Carlsbad,92013,760-510-0642,California
Biron Allner,1295 Sloan Plaza,Irvine,92710,714-646-3987,California
Buffy Fishbie,77 Vermont Crossing,San Diego,92165,619-766-5654,California
Ki Marginson,251 Surrey Hill,San Diego,92121,619-477-0504,California
Abbie Tidbury,82170 Grover Avenue,Oakland,94616,415-131-6006,California
Shalne Lynas,131 Rutledge Trail,San Jose,95113,408-683-8864,California
Archibaldo Kittle,532 Ridge Oak Trail,Brea,92822,818-667-2478,California
Helli Headings,6 Hayes Drive,San Francisco,94126,415-862-3083,California
Kelli Broscombe,92313 Eastlawn Pass,Sacramento,94273,916-767-4801,California
Emili Devitt,2 Londonderry Court,Fresno,93750,559-535-6496,California
Alanna Swiffin,32 Scofield Plaza,San Francisco,94177,415-278-7529,California
Elbert Trousdell,1 Daystar Alley,San Diego,92191,619-287-4829,California
Con Drage,726 Carpenter Drive,Los Angeles,90030,213-481-0012,California
Gino Tortoishell,5 Carey Center,Long Beach,90805,562-533-3280,California
Hew Axelby,29 Northview Place,San Bernardino,92415,760-199-6637,California
Maure Lammie,2 Debs Lane,San Diego,92186,619-900-2468,California
Payton Clyburn,6799 Summerview Terrace,Sacramento,94286,916-977-0769,California
Jany Earle,131 Delladonna Avenue,Redwood City,94064,650-978-7069,California
Temp Dumbare,01 Petterle Place,Los Angeles,90076,323-477-9242,California
Ettore Bream,63 Karstens Parkway,Pasadena,91103,323-218-1762,California
Tiffi Verrillo,77987 Amoth Center,Santa Monica,90405,818-606-2109,California
Beverly Vahl,16988 Caliangt Terrace,Salinas,93907,831-987-3867,California
Allina Biasetti,30346 Mifflin Pass,Salinas,93907,831-939-5152,California
Godart Wallen,102 Crescent Oaks Road,San Diego,92186,619-756-0698,California
Sharai Boldt,3644 Caliangt Drive,San Diego,92105,858-141-5546,California
Lilla Pennington,5922 Sloan Avenue,Whittier,90605,562-938-9859,California
Chantalle Dumingo,205 Dawn Trail,Los Angeles,90101,213-477-8059,California
Amber Ackerman,793 Eastlawn Park,San Diego,92196,619-188-6953,California
Lind Suermeier,8603 Nevada Drive,Concord,94522,925-547-3080,California
Charo Langcastle,151 Melby Center,Fresno,93750,559-827-8565,California
Rinaldo Comoletti,321 Sheridan Pass,Sacramento,95838,916-490-7082,California
Isidore Pavier,9 Graceland Drive,San Francisco,94177,415-984-3535,California
Vanya Toulson,12414 Farmco Park,Santa Clara,95054,858-319-2862,California
Gerianna Ruecastle,56 Eagle Crest Trail,Pasadena,91131,626-671-2268,California
Mic McGonigal,0099 Mallory Hill,Long Beach,90805,323-490-3607,California
Lurline Else,52 Eastwood Alley,San Bernardino,92415,909-909-7566,California
Neysa Cecchi,79966 Heffernan Way,Los Angeles,90065,818-214-2971,California
Jedediah Le land,4 Fairfield Place,San Bernardino,92415,909-253-0918,California
Mortie Mence,9 Gateway Junction,Fresno,93786,559-156-5202,California
Blair Summerlad,294 Cordelia Street,Palmdale,93591,661-774-3500,California
Baxie Pimerick,98342 Surrey Center,Oakland,94627,510-271-6883,California
Carver Blissitt,4562 Fairview Park,San Francisco,94110,562-834-3873,California
Sheryl Domb,188 American Avenue,Santa Cruz,95064,831-633-2037,California
Ruddy Worham,03 Grover Park,Burbank,91505,818-335-5630,California
Kathie Fawson,4020 Briar Crest Center,Sacramento,94207,916-984-7979,California
Ashlin Maughan,944 Spaight Crossing,Sacramento,94286,916-670-8983,California
Amandi O'Dyvoie,83145 Buena Vista Trail,Sacramento,94257,916-131-8121,California
Vikki MacKeeg,106 Cottonwood Point,Burbank,91505,323-963-0574,California
Thaine Grimsdell,5464 Kipling Alley,Palo Alto,94302,310-287-5626,California
Rubin McFadin,2 Warrior Crossing,Fullerton,92835,714-682-1301,California
Jacenta Titchener,37 Colorado Street,Chula Vista,91913,619-218-7852,California
Addia Grant,82410 Crescent Oaks Crossing,Van Nuys,91411,818-308-3502,California
Mariska Vogeler,8 Mcbride Terrace,San Bernardino,92424,909-971-3873,California
Mikol Outibridge,7 Shasta Drive,Anaheim,92805,714-231-9894,California
Dedie Rockliffe,06 Nova Trail,San Francisco,94132,415-820-3332,California
Patten Linggard,91 Ridgeview Hill,Newport Beach,92662,949-699-0527,California
Marinna Butting,3861 Russell Trail,San Bernardino,92410,951-845-2497,California
Husain Treswell,09 Ridge Oak Crossing,Los Angeles,90060,323-153-3807,California
Tiphanie Hessing,5234 Lyons Street,Sacramento,95828,916-788-7873,California
Coral Flott,23 Meadow Ridge Court,Stockton,95298,209-747-9261,California
El Yurkov,14 Anniversary Street,San Mateo,94405,805-581-1698,California
Traci Joysey,7799 Dottie Place,Fresno,93709,559-795-2537,California
Leann Luggar,3377 Hayes Center,San Diego,92196,619-337-0668,California
Hube Duffill,6698 Hooker Drive,Petaluma,94975,707-973-3882,California
Jaime Feron,19 Carberry Center,San Diego,92127,760-630-4184,California
Susie Pleming,6 Prairieview Plaza,Chico,95973,530-605-5787,California
Carley Jellard,2899 Anthes Plaza,Santa Monica,90405,310-788-8754,California
Laura Aishford,838 Pennsylvania Hill,San Mateo,94405,805-204-8141,California
Prissie Candy,56 Arkansas Trail,Sacramento,94250,916-956-6519,California
Kat Friatt,5 Evergreen Junction,San Diego,92176,619-730-5099,California
Luciano Dennick,92 Hoepker Terrace,Garden Grove,92844,714-231-7437,California
Claus Cholomin,70 Crowley Circle,Sunnyvale,94089,650-809-8817,California
Elbertina Mityukov,0735 Grasskamp Park,Van Nuys,91411,626-635-0753,California
Yurik Gouth,840 Randy Junction,Modesto,95354,209-939-0671,California
Cristine Ronnay,96 Sunfield Pass,Garden Grove,92645,714-184-7942,California
Alethea Duplan,96140 Lighthouse Bay Pass,Lancaster,93584,661-727-9983,California
Raviv Gotthard.sf,2 Bultman Plaza,Santa Clara,95054,831-960-7865,California
Ker Craufurd,4 Forest Run Parkway,San Rafael,94913,415-534-9273,California
Gypsy Cardo,2 Victoria Hill,Sacramento,94207,916-434-0796,California
Tristan Brehault,60 Schlimgen Avenue,North Hollywood,91606,818-921-1513,California
Sonja Bellino,519 Daystar Place,Fresno,93704,209-377-5899,California
Tuck Dumbell,16 Corben Plaza,Los Angeles,90025,310-349-0238,California
Antonius Leydon,7109 Autumn Leaf Point,Los Angeles,90189,213-135-6506,California
Luelle Yanele,54712 Transport Center,Whittier,90605,626-506-9507,California
Colly Blankman,35 Warner Court,Los Angeles,90025,213-485-0638,California
Magdalen Denis,2 Lakewood Gardens Crossing,Long Beach,90831,562-707-5338,California
Kerrill Shills,1 Londonderry Road,Berkeley,94712,510-435-9808,California
Janessa Banghe,56 Maryland Alley,Fresno,93794,559-145-0710,California
Lissi Cottrell,24 Marcy Street,Alhambra,91841,626-575-6201,California
Lemar Janman,54770 Carberry Court,San Bernardino,92410,909-857-4432,California
Egon Cullinan,8 Dennis Terrace,Modesto,95354,559-756-1578,California
Kirsten Gate,102 Mariners Cove Plaza,San Francisco,94132,415-920-9259,California
Silvain Dossit,32 Old Gate Circle,Garden Grove,92645,714-747-5809,California
Angie Harefoot,86260 Dayton Circle,Newport Beach,92662,714-449-3796,California
Karly Cubbit,726 Red Cloud Road,San Diego,92170,619-636-7141,California
Eadmund Cansdill,43 Glendale Park,San Francisco,94164,415-758-9728,California
Paulie Tommasi,29 Eagle Crest Alley,Sacramento,94286,916-122-5480,California
Lola Chapiro,67838 Emmet Hill,San Jose,95138,408-756-9489,California
Grier Bellefant,00229 Emmet Crossing,Santa Cruz,95064,831-833-7624,California
Nerte Van Der Straaten,62 Fairview Park,San Francisco,94137,415-185-4465,California
Hesther Trubshaw,93 Hoard Terrace,Newport Beach,92662,949-264-1600,California
Anna-diane Pietersma,2457 Monica Alley,Sacramento,95894,916-313-3252,California
Jaimie Armin,87 Columbus Center,Fresno,93786,559-741-2164,California
Husein Kersaw,4679 Troy Way,San Diego,92127,858-280-3351,California
Ainslee Orneblow,55343 Vermont Center,San Jose,95128,408-625-9147,California
Maud Witherby,31774 Village Green Plaza,San Jose,95150,408-990-1449,California
Tremain Whightman,65 Mendota Plaza,Oakland,94660,510-699-2974,California
Leonardo ffrench Beytagh,227 Gina Hill,Richmond,94807,510-803-8440,California
Lynnelle Waliszewski,318 Ludington Circle,Los Angeles,90020,818-820-9052,California
Christyna Ancliffe,56976 Eagle Crest Drive,Sacramento,95838,916-968-7055,California
Rosella Drinnan,91097 Swallow Circle,Corona,92878,951-548-7535,California
Lezley Varey,3962 Del Sol Park,Santa Ana,92725,714-463-5901,California
Kenon Bawdon,0732 Hoffman Terrace,Los Angeles,90065,818-209-9042,California
Bert Cogdell,60 Buhler Court,San Jose,95173,408-925-0768,California
Matthieu Troubridge,71 Rusk Avenue,Palmdale,93591,661-307-3483,California
Koo Hamelyn,6 Ruskin Crossing,Santa Cruz,95064,831-523-6667,California
Steffen Colvie,34 Prairieview Place,San Francisco,94177,415-688-3288,California
Devina Embleton,9 Pankratz Drive,Los Angeles,90030,213-246-4460,California
Norry Nangle,137 Delladonna Point,San Bernardino,92405,909-875-4019,California
Jenda Corden,67 Swallow Terrace,Sacramento,94237,916-160-1723,California
Dallon Sweeten,1886 Melvin Crossing,Los Angeles,90055,213-744-4777,California
Donella Boik,996 Paget Crossing,San Diego,92132,619-377-7446,California
Paulie Hillen,67550 Shasta Place,Sacramento,94291,916-677-0788,California
Madelaine Lodovichi,81 Moose Street,Pasadena,91117,626-274-6518,California
Janka Warrilow,5 Clemons Hill,Los Angeles,90071,424-516-3581,California
Killian Chapman,08 Judy Place,Northridge,91328,818-777-7616,California
Jocelyne Senechault,842 Elgar Crossing,Mountain View,94042,650-228-9767,California
Elinor Shovell,1017 Northridge Court,Sacramento,95828,916-172-1826,California
Dorey Scedall,16 Blue Bill Park Court,San Diego,92110,619-906-4305,California
Robbi Twiggs,08 Valley Edge Crossing,Torrance,90510,818-910-0272,California
Mart Cadell,186 Garrison Way,Inglewood,90305,310-634-9970,California
Adlai MacKim,68 Spenser Junction,Fresno,93786,559-653-2845,California
Moore Askey,9889 Algoma Lane,Whittier,90605,562-920-5613,California
Townsend Batrim,166 Heath Road,Bakersfield,93386,661-639-1668,California
Ham Wallice,0 Victoria Park,Sacramento,94273,916-163-3778,California
Roxanne Souter,2 Merrick Crossing,Sacramento,95818,530-665-2140,California
Jana Menego,67407 Stephen Road,San Diego,92153,619-266-6080,California
Alvinia Haggerty,1 Jackson Alley,Santa Barbara,93106,805-943-7487,California
Emmalynne Lawless,46935 Hansons Terrace,Los Angeles,90015,323-671-3747,California
Bondy Dubble,56 Mariners Cove Center,Sacramento,95852,916-807-5754,California
Gilly Howen,2620 Forster Road,Riverside,92513,951-431-2373,California
Donielle McCullock,13 Loeprich Junction,Carlsbad,92013,760-596-9890,California
Tan Bellchamber,52311 Eagan Lane,Sacramento,94291,916-251-5704,California
Hendrika Frape,7 Sunbrook Parkway,Los Angeles,90060,323-764-1229,California
Valencia Arnoll,3938 New Castle Plaza,Irvine,92717,714-511-9731,California
Claudine Thowless,4 Mayfield Junction,Redwood City,94064,650-682-6847,California
Dody McLleese,38673 Crownhardt Center,Sacramento,94207,916-362-2144,California
Dalston Garbar,53 Westend Avenue,San Jose,95138,408-555-2622,California
Lindi Spiller,41601 Corben Hill,Fresno,93715,209-656-5882,California
Roana Lovick,221 Armistice Circle,Pasadena,91131,626-789-8167,California
Calli Slarke,3474 Carioca Way,Burbank,91520,661-812-4868,California
Natividad Peinton,31953 Merchant Park,Carlsbad,92013,760-866-3926,California
Debby Leadbitter,2 Texas Avenue,Sacramento,94291,916-102-3115,California
Sheeree Rainger,3 Mesta Lane,Pasadena,91109,818-134-4349,California
Lil Lofthouse,65700 Lerdahl Center,Irvine,92710,714-383-2582,California
Tilda Silkstone,6093 Goodland Hill,San Jose,95128,408-263-1453,California
Julio Jackman,35 North Avenue,San Francisco,94142,415-316-2217,California
Ase Truter,629 High Crossing Drive,San Diego,92191,619-164-2188,California
Zorine Cockings,24 Thackeray Street,Santa Barbara,93111,805-184-0384,California
Christin McPhilemy,0 Twin Pines Trail,Lancaster,93584,661-986-2614,California
Konstantine Gellately,156 Lillian Center,Van Nuys,91411,323-679-1190,California
Taite Raeburn,68754 Leroy Park,Los Angeles,90025,213-304-3724,California
Sarajane Yurchishin,3440 Dunning Drive,Fullerton,92835,714-131-5754,California
Biddie Maior,327 Forest Run Avenue,San Luis Obispo,93407,805-255-6852,California
Edgard Manson,903 Magdeline Drive,Santa Ana,92725,714-571-2934,California
Tiphany Swabey,7891 Gerald Trail,Los Angeles,90045,213-768-2444,California
Harriett Chiverton,2 Susan Court,Sacramento,95865,916-108-0184,California
Kelley De Micoli,3 Little Fleur Crossing,Lancaster,93584,661-390-1204,California
Saloma Lawry,53324 Ryan Parkway,Santa Barbara,93150,805-451-9606,California
Giffie Gosnoll,75 Sugar Way,San Francisco,94159,415-325-3999,California
Piggy Douce,89419 Riverside Trail,Sacramento,94207,916-143-0232,California
Lyndsey Lince,58249 Garrison Alley,Van Nuys,91406,805-962-5085,California
Lucias Pulteneye,623 Dovetail Terrace,Irvine,92710,714-199-1035,California
Guthrie Symmers,95 Gerald Pass,Bakersfield,93386,661-746-6103,California
Caitlin Spurgin,984 4th Park,Riverside,92505,909-335-1176,California
Siusan Stronack,781 Westport Crossing,San Diego,92137,619-790-3869,California
Rodina Nethercott,49 Hoffman Circle,San Diego,92186,619-575-6345,California
Inez Hagstone,974 Gerald Terrace,Sacramento,95823,510-883-3439,California
James Kegg,9047 Sloan Hill,San Mateo,94405,805-959-5556,California
Maud Rubertis,968 Pearson Crossing,Fresno,93721,559-583-3699,California
Dina Torrecilla,593 Merchant Terrace,Fresno,93715,209-148-6430,California
Trevar Urpeth,454 Cascade Road,Palo Alto,94302,650-907-7872,California
Bryanty Noyes,70 Merchant Crossing,Alhambra,91841,626-659-6313,California
Way Lambol,2832 Canary Hill,Irvine,92619,949-374-5780,California
Reena Hartington,80718 Blaine Junction,San Jose,95108,408-286-9957,California
Salome Burkett,90252 Sherman Road,Sacramento,95865,916-942-7780,California
Vernen Alloisi,91 Mariners Cove Lane,Mountain View,94042,650-649-3906,California
Augustine Gofton,7538 Artisan Court,Modesto,95397,209-354-5200,California
Kathie Ortmann,387 Briar Crest Way,Modesto,95397,209-642-5231,California
Charil Betz,2 Hollow Ridge Terrace,Los Angeles,90071,562-606-2093,California
Chrissie Sproston,69 Nobel Alley,San Francisco,94142,415-319-1298,California
Avrom Hedge,11826 Debra Crossing,Hayward,94544,209-223-0726,California
Jaquelin Maharry,1514 Little Fleur Pass,San Francisco,94154,415-423-9290,California
Robby Stitch,8848 Shasta Terrace,Riverside,92513,951-796-0786,California
Julio Sweeten,9 Hoffman Pass,Santa Barbara,93111,805-422-6509,California
Garik Goscomb,42 Twin Pines Park,San Diego,92145,619-353-1611,California
Starlin Stanistrete,29453 Ridgeview Way,Oakland,94611,415-486-1446,California
Katy Wellsman,69 Manley Place,Sacramento,95894,916-489-7031,California
Kristo Hulls,47961 Golf View Avenue,Fresno,93704,209-139-2987,California
Petrina Gregore,0365 Bartelt Plaza,Visalia,93291,209-128-4716,California
Gawain Lamort,32 Kensington Crossing,Santa Monica,90405,310-561-7128,California
Corine Mackleden,1 Eggendart Road,Glendale,91210,818-644-5765,California
Cozmo Gauford,767 Nancy Avenue,Bakersfield,93386,661-646-9081,California
Elsworth Allain,71244 Walton Circle,Alhambra,91841,626-976-4242,California
Vidovic Edinburough,561 Havey Court,San Jose,95150,408-240-4220,California
Garald Cicconetti,4320 Jenifer Center,Santa Clara,95054,831-544-0916,California
Nanete Mishaw,002 Veith Park,South Lake Tahoe,96154,530-260-5258,California
Erasmus Toovey,5626 Chive Pass,San Diego,92132,858-708-0135,California
Dagny Currum,726 Shoshone Plaza,San Luis Obispo,93407,805-642-9191,California
Pablo Rohmer,177 Ridge Oak Center,Oceanside,92056,858-274-9238,California
Magda Abriani,2315 Rieder Lane,San Diego,92105,858-709-2636,California
Friedrich Tenman,003 Oak Junction,Fullerton,92640,559-783-1276,California
Laryssa Steart,98262 Tony Court,Bakersfield,93305,805-633-3998,California
Ignatius Keppy,9 Lerdahl Avenue,Anaheim,92812,714-865-6259,California
Janey Kilfoyle,5548 Union Pass,Los Angeles,90060,323-951-2588,California
Roze Kingscote,8280 Montana Way,Pasadena,91125,626-887-9504,California
Allina Iley,1741 Macpherson Court,San Jose,95160,408-351-6527,California
Langsdon Ida,1279 Daystar Plaza,San Jose,95128,408-836-1352,California
Jaine Cockaday,8 8th Park,Petaluma,94975,707-810-9080,California
Rozanne Vallentin,346 Brentwood Street,Sacramento,95838,916-532-5538,California
